[{"CCSDS_OMM_VERS":"3.0","COMMENT":"GENERATED VIA SPACE-TRACK.ORG API","CREATION_DATE":"2026-01-19T02:30:55","ORIGINATOR":"18 SPCS","OBJECT_NAME":"THOR ABLESTAR DEB","OBJECT_ID":"1961-015G","CENTER_NAME":"EARTH","REF_FRAME":"TEME","TIME_SYSTEM":"UTC","MEAN_ELEMENT_THEORY":"SGP4","EPOCH":"2026-01-18T22:30:28.137024","MEAN_MOTION":"14.97855655","ECCENTRICITY":"0.00437380","INCLINATION":"66.7409","RA_OF_ASC_NODE":"258.7327","ARG_OF_PERICENTER":"315.4305","MEAN_ANOMALY":"44.3313","EPHEMERIS_TYPE":"0","CLASSIFICATION_TYPE":"U","NORAD_CAT_ID":"122","ELEMENT_SET_NO":"999","REV_AT_EPOCH":"37189","BSTAR":"0.00079451032000","MEAN_MOTION_DOT":"0.00009431","MEAN_MOTION_DDOT":"0.0000000000000","SEMIMAJOR_AXIS":"6951.660","PERIOD":"96.137","APOAPSIS":"603.930","PERIAPSIS":"543.120","OBJECT_TYPE":"DEBRIS","RCS_SIZE":"MEDIUM","COUNTRY_CODE":"US","LAUNCH_DATE":"1961-06-29","SITE":"AFETR","DECAY_DATE":null,"FILE":"4972920","GP_ID":"309393221","TLE_LINE0":"0 THOR ABLESTAR DEB","TLE_LINE1":"1 00122U 61015G   26018.93782566  .00009431  00000-0  79451-3 0  9997","TLE_LINE2":"2 00122  66.7409 258.7327 0043738 315.4305  44.3313 14.97855655371890"},{"CCSDS_OMM_VERS":"3.0","COMMENT":"GENERATED VIA SPACE-TRACK.ORG API","CREATION_DATE":"2026-01-19T02:30:55","ORIGINATOR":"18 SPCS","OBJECT_NAME":"THOR ABLESTAR DEB","OBJECT_ID":"1961-015H","CENTER_NAME":"EARTH","REF_FRAME":"TEME","TIME_SYSTEM":"UTC","MEAN_ELEMENT_THEORY":"SGP4","EPOCH":"2026-01-18T23:02:29.978880","MEAN_MOTION":"14.41429748","ECCENTRICITY":"0.01069465","INCLINATION":"66.6862","RA_OF_ASC_NODE":"105.9789","ARG_OF_PERICENTER":"15.1811","MEAN_ANOMALY":"345.2459","EPHEMERIS_TYPE":"0","CLASSIFICATION_TYPE":"U","NORAD_CAT_ID":"123","ELEMENT_SET_NO":"999","REV_AT_EPOCH":"35802","BSTAR":"0.00018005184000","MEAN_MOTION_DOT":"0.00000531","MEAN_MOTION_DDOT":"0.0000000000000","SEMIMAJOR_AXIS":"7131.915","PERIOD":"99.901","APOAPSIS":"830.054","PERIAPSIS":"677.507","OBJECT_TYPE":"DEBRIS","RCS_SIZE":"MEDIUM","COUNTRY_CODE":"US","LAUNCH_DATE":"1961-06-29","SITE":"AFETR","DECAY_DATE":null,"FILE":"4972920","GP_ID":"309393722","TLE_LINE0":"0 THOR ABLESTAR DEB","TLE_LINE1":"1 00123U 61015H   26018.96006920  .00000531  00000-0  18005-3 0  9994","TLE_LINE2":"2 00123  66.6862 105.9789 0106947  15.1811 345.2459 14.41429748358029"},{"CCSDS_OMM_VERS":"3.0","COMMENT":"GENERATED VIA SPACE-TRACK.ORG API","CREATION_DATE":"2026-01-19T02:30:55","ORIGINATOR":"18 SPCS","OBJECT_NAME":"THOR ABLESTAR DEB","OBJECT_ID":"1961-015J","CENTER_NAME":"EARTH","REF_FRAME":"TEME","TIME_SYSTEM":"UTC","MEAN_ELEMENT_THEORY":"SGP4","EPOCH":"2026-01-18T22:32:38.732352","MEAN_MOTION":"14.35704361","ECCENTRICITY":"0.00758255","INCLINATION":"66.5444","RA_OF_ASC_NODE":"280.2393","ARG_OF_PERICENTER":"238.6591","MEAN_ANOMALY":"120.7073","EPHEMERIS_TYPE":"0","CLASSIFICATION_TYPE":"U","NORAD_CAT_ID":"124","ELEMENT_SET_NO":"999","REV_AT_EPOCH":"33750","BSTAR":"0.00033185723000","MEAN_MOTION_DOT":"0.00000903","MEAN_MOTION_DDOT":"0.0000000000000","SEMIMAJOR_AXIS":"7150.864","PERIOD":"100.299","APOAPSIS":"826.950","PERIAPSIS":"718.507","OBJECT_TYPE":"DEBRIS","RCS_SIZE":"SMALL","COUNTRY_CODE":"US","LAUNCH_DATE":"1961-06-29","SITE":"AFETR","DECAY_DATE":null,"FILE":"4972920","GP_ID":"309393222","TLE_LINE0":"0 THOR ABLESTAR DEB","TLE_LINE1":"1 00124U 61015J   26018.93933718  .00000903  00000-0  33186-3 0  9996","TLE_LINE2":"2 00124  66.5444 280.2393 0075825 238.6591 120.7073 14.35704361337508"},{"CCSDS_OMM_VERS":"3.0","COMMENT":"GENERATED VIA SPACE-TRACK.ORG API","CREATION_DATE":"2026-01-19T02:30:55","ORIGINATOR":"18 SPCS","OBJECT_NAME":"THOR ABLESTAR DEB","OBJECT_ID":"1961-015K","CENTER_NAME":"EARTH","REF_FRAME":"TEME","TIME_SYSTEM":"UTC","MEAN_ELEMENT_THEORY":"SGP4","EPOCH":"2026-01-18T20:50:40.204896","MEAN_MOTION":"14.07575546","ECCENTRICITY":"0.00724200","INCLINATION":"66.8771","RA_OF_ASC_NODE":"303.0512","ARG_OF_PERICENTER":"179.0299","MEAN_ANOMALY":"181.0943","EPHEMERIS_TYPE":"0","CLASSIFICATION_TYPE":"U","NORAD_CAT_ID":"125","ELEMENT_SET_NO":"999","REV_AT_EPOCH":"29624","BSTAR":"0.00018684800000","MEAN_MOTION_DOT":"0.00000244","MEAN_MOTION_DDOT":"0.0000000000000","SEMIMAJOR_AXIS":"7245.817","PERIOD":"102.304","APOAPSIS":"920.156","PERIAPSIS":"815.208","OBJECT_TYPE":"DEBRIS","RCS_SIZE":"SMALL","COUNTRY_CODE":"US","LAUNCH_DATE":"1961-06-29","SITE":"AFETR","DECAY_DATE":null,"FILE":"4972920","GP_ID":"309393723","TLE_LINE0":"0 THOR ABLESTAR DEB","TLE_LINE1":"1 00125U 61015K   26018.86852089  .00000244  00000-0  18685-3 0  9995","TLE_LINE2":"2 00125  66.8771 303.0512 0072420 179.0299 181.0943 14.07575546296244"},{"CCSDS_OMM_VERS":"3.0","COMMENT":"GENERATED VIA SPACE-TRACK.ORG API","CREATION_DATE":"2026-01-19T02:30:55","ORIGINATOR":"18 SPCS","OBJECT_NAME":"THOR ABLESTAR DEB","OBJECT_ID":"1961-015L","CENTER_NAME":"EARTH","REF_FRAME":"TEME","TIME_SYSTEM":"UTC","MEAN_ELEMENT_THEORY":"SGP4","EPOCH":"2026-01-18T16:15:36.185760","MEAN_MOTION":"14.44360396","ECCENTRICITY":"0.00590933","INCLINATION":"66.7085","RA_OF_ASC_NODE":"134.1550","ARG_OF_PERICENTER":"359.7859","MEAN_ANOMALY":"0.3211","EPHEMERIS_TYPE":"0","CLASSIFICATION_TYPE":"U","NORAD_CAT_ID":"126","ELEMENT_SET_NO":"999","REV_AT_EPOCH":"34300","BSTAR":"0.00034713669000","MEAN_MOTION_DOT":"0.00001131","MEAN_MOTION_DDOT":"0.0000000000000","SEMIMAJOR_AXIS":"7122.265","PERIOD":"99.698","APOAPSIS":"786.218","PERIAPSIS":"702.042","OBJECT_TYPE":"DEBRIS","RCS_SIZE":"MEDIUM","COUNTRY_CODE":"US","LAUNCH_DATE":"1961-06-29","SITE":"AFETR","DECAY_DATE":null,"FILE":"4972920","GP_ID":"309393223","TLE_LINE0":"0 THOR ABLESTAR DEB","TLE_LINE1":"1 00126U 61015L   26018.67750215  .00001131  00000-0  34714-3 0  9990","TLE_LINE2":"2 00126  66.7085 134.1550 0059093 359.7859   0.3211 14.44360396343001"},{"CCSDS_OMM_VERS":"3.0","COMMENT":"GENERATED VIA SPACE-TRACK.ORG API","CREATION_DATE":"2026-01-19T02:30:55","ORIGINATOR":"18 SPCS","OBJECT_NAME":"THOR ABLESTAR DEB","OBJECT_ID":"1961-015M","CENTER_NAME":"EARTH","REF_FRAME":"TEME","TIME_SYSTEM":"UTC","MEAN_ELEMENT_THEORY":"SGP4","EPOCH":"2026-01-18T22:46:49.114848","MEAN_MOTION":"14.47959962","ECCENTRICITY":"0.00577904","INCLINATION":"66.8294","RA_OF_ASC_NODE":"345.4222","ARG_OF_PERICENTER":"125.1395","MEAN_ANOMALY":"235.5149","EPHEMERIS_TYPE":"0","CLASSIFICATION_TYPE":"U","NORAD_CAT_ID":"127","ELEMENT_SET_NO":"999","REV_AT_EPOCH":"34524","BSTAR":"0.00039354727000","MEAN_MOTION_DOT":"0.00001401","MEAN_MOTION_DDOT":"0.0000000000000","SEMIMAJOR_AXIS":"7110.456","PERIOD":"99.450","APOAPSIS":"773.413","PERIAPSIS":"691.230","OBJECT_TYPE":"DEBRIS","RCS_SIZE":"MEDIUM","COUNTRY_CODE":"US","LAUNCH_DATE":"1961-06-29","SITE":"AFETR","DECAY_DATE":null,"FILE":"4972920","GP_ID":"309393724","TLE_LINE0":"0 THOR ABLESTAR DEB","TLE_LINE1":"1 00127U 61015M   26018.94917957  .00001401  00000-0  39355-3 0  9995","TLE_LINE2":"2 00127  66.8294 345.4222 0057790 125.1395 235.5149 14.47959962345246"},{"CCSDS_OMM_VERS":"3.0","COMMENT":"GENERATED VIA SPACE-TRACK.ORG API","CREATION_DATE":"2026-01-19T02:30:55","ORIGINATOR":"18 SPCS","OBJECT_NAME":"THOR ABLESTAR DEB","OBJECT_ID":"1961-015N","CENTER_NAME":"EARTH","REF_FRAME":"TEME","TIME_SYSTEM":"UTC","MEAN_ELEMENT_THEORY":"SGP4","EPOCH":"2026-01-18T20:55:43.427424","MEAN_MOTION":"14.01987334","ECCENTRICITY":"0.00875108","INCLINATION":"66.6731","RA_OF_ASC_NODE":"193.3457","ARG_OF_PERICENTER":"58.7592","MEAN_ANOMALY":"302.2028","EPHEMERIS_TYPE":"0","CLASSIFICATION_TYPE":"U","NORAD_CAT_ID":"128","ELEMENT_SET_NO":"999","REV_AT_EPOCH":"29414","BSTAR":"0.00009276934300","MEAN_MOTION_DOT":"0.00000067","MEAN_MOTION_DDOT":"0.0000000000000","SEMIMAJOR_AXIS":"7265.058","PERIOD":"102.711","APOAPSIS":"950.501","PERIAPSIS":"823.346","OBJECT_TYPE":"DEBRIS","RCS_SIZE":"MEDIUM","COUNTRY_CODE":"US","LAUNCH_DATE":"1961-06-29","SITE":"AFETR","DECAY_DATE":null,"FILE":"4972920","GP_ID":"309393224","TLE_LINE0":"0 THOR ABLESTAR DEB","TLE_LINE1":"1 00128U 61015N   26018.87203041  .00000067  00000-0  92769-4 0  9996","TLE_LINE2":"2 00128  66.6731 193.3457 0087511  58.7592 302.2028 14.01987334294149"},{"CCSDS_OMM_VERS":"3.0","COMMENT":"GENERATED VIA SPACE-TRACK.ORG API","CREATION_DATE":"2026-01-19T02:30:55","ORIGINATOR":"18 SPCS","OBJECT_NAME":"THOR ABLESTAR DEB","OBJECT_ID":"1961-015Q","CENTER_NAME":"EARTH","REF_FRAME":"TEME","TIME_SYSTEM":"UTC","MEAN_ELEMENT_THEORY":"SGP4","EPOCH":"2026-01-18T22:45:28.680768","MEAN_MOTION":"13.99385905","ECCENTRICITY":"0.00819018","INCLINATION":"66.7701","RA_OF_ASC_NODE":"261.8730","ARG_OF_PERICENTER":"30.6080","MEAN_ANOMALY":"329.9744","EPHEMERIS_TYPE":"0","CLASSIFICATION_TYPE":"U","NORAD_CAT_ID":"130","ELEMENT_SET_NO":"999","REV_AT_EPOCH":"29057","BSTAR":"0.00009461035000","MEAN_MOTION_DOT":"0.00000063","MEAN_MOTION_DDOT":"0.0000000000000","SEMIMAJOR_AXIS":"7274.059","PERIOD":"102.902","APOAPSIS":"955.500","PERIAPSIS":"836.349","OBJECT_TYPE":"DEBRIS","RCS_SIZE":"MEDIUM","COUNTRY_CODE":"US","LAUNCH_DATE":"1961-06-29","SITE":"AFETR","DECAY_DATE":null,"FILE":"4972920","GP_ID":"309393725","TLE_LINE0":"0 THOR ABLESTAR DEB","TLE_LINE1":"1 00130U 61015Q   26018.94824862  .00000063  00000-0  94610-4 0  9990","TLE_LINE2":"2 00130  66.7701 261.8730 0081902  30.6080 329.9744 13.99385905290570"}]